{
  "type": "FeatureCollection",
  "features": [
    {
      "type": "Feature",
      "properties": {
        "norad_id": 38250,
        "name": "BEIDOU-2 M3 (C11)",
        "group": "beidou",
        "lat": 44.273266013357905,
        "lon": -7.928939262090558,
        "alt_km": 21575.79375576083,
        "timestamp": "2025-12-22T14:45:57.667722+00:00",
        "meta_object_name": "BEIDOU-2 M3 (C11)",
        "meta_object_id": "2012-018A",
        "meta_epoch": "2025-12-21T23:49:10.133760",
        "meta_mean_motion": 1.86230181,
        "meta_eccentricity": 0.00240993,
        "meta_inclination": 55.9124,
        "meta_ra_of_asc_node": 310.8468,
        "meta_arg_of_pericenter": 275.3188,
        "meta_mean_anomaly": 84.4018,
        "meta_ephemeris_type": 0,
        "meta_classification_type": "U",
        "meta_norad_cat_id": 38250,
        "meta_element_set_no": 999,
        "meta_rev_at_epoch": 9264,
        "meta_bstar": 0,
        "meta_mean_motion_dot": -6e-07,
        "meta_mean_motion_ddot": 0,
        "tle_line1": "1 38250U 12018A   25355.99247840 -.00000060  00000+0  00000+0 0  9998",
        "tle_line2": "2 38250  55.9124 310.8468 0024099 275.3188  84.4018  1.86230181 92640"
      },
      "geometry": {
        "type": "Point",
        "coordinates": [
          -7.928939262090558,
          44.273266013357905
        ]
      }
    },
    {
      "type": "Feature",
      "properties": {
        "norad_id": 38251,
        "name": "BEIDOU-2 M4 (C12)",
        "group": "beidou",
        "lat": 53.74014908238333,
        "lon": 62.25335313928691,
        "alt_km": 21564.43939770919,
        "timestamp": "2025-12-22T14:45:57.667733+00:00",
        "meta_object_name": "BEIDOU-2 M4 (C12)",
        "meta_object_id": "2012-018B",
        "meta_epoch": "2025-12-21T22:11:20.549760",
        "meta_mean_motion": 1.86229896,
        "meta_eccentricity": 0.00152556,
        "meta_inclination": 55.8135,
        "meta_ra_of_asc_node": 310.0771,
        "meta_arg_of_pericenter": 279.1681,
        "meta_mean_anomaly": 80.6551,
        "meta_ephemeris_type": 0,
        "meta_classification_type": "U",
        "meta_norad_cat_id": 38251,
        "meta_element_set_no": 999,
        "meta_rev_at_epoch": 9264,
        "meta_bstar": 0,
        "meta_mean_motion_dot": -6e-07,
        "meta_mean_motion_ddot": 0,
        "tle_line1": "1 38251U 12018B   25355.92454340 -.00000060  00000+0  00000+0 0  9997",
        "tle_line2": "2 38251  55.8135 310.0771 0015255 279.1681  80.6551  1.86229896 92646"
      },
      "geometry": {
        "type": "Point",
        "coordinates": [
          62.25335313928691,
          53.74014908238333
        ]
      }
    },
    {
      "type": "Feature",
      "properties": {
        "norad_id": 38775,
        "name": "BEIDOU-2 M6 (C14)",
        "group": "beidou",
        "lat": -48.027700395640174,
        "lon": 21.16224091711119,
        "alt_km": 21511.590909360715,
        "timestamp": "2025-12-22T14:45:57.667745+00:00",
        "meta_object_name": "BEIDOU-2 M6 (C14)",
        "meta_object_id": "2012-050B",
        "meta_epoch": "2025-12-22T04:08:12.945984",
        "meta_mean_motion": 1.86230889,
        "meta_eccentricity": 0.00114149,
        "meta_inclination": 56.3862,
        "meta_ra_of_asc_node": 68.7545,
        "meta_arg_of_pericenter": 343.263,
        "meta_mean_anomaly": 16.7493,
        "meta_ephemeris_type": 0,
        "meta_classification_type": "U",
        "meta_norad_cat_id": 38775,
        "meta_element_set_no": 999,
        "meta_rev_at_epoch": 9001,
        "meta_bstar": 0,
        "meta_mean_motion_dot": -3e-07,
        "meta_mean_motion_ddot": 0,
        "tle_line1": "1 38775U 12050B   25356.17237206 -.00000030  00000+0  00000+0 0  9999",
        "tle_line2": "2 38775  56.3862  68.7545 0011414 343.2630  16.7493  1.86230889 90014"
      },
      "geometry": {
        "type": "Point",
        "coordinates": [
          21.16224091711119,
          -48.027700395640174
        ]
      }
    },
    {
      "type": "Feature",
      "properties": {
        "norad_id": 38953,
        "name": "BEIDOU-2 G6 (C02)",
        "group": "beidou",
        "lat": -2.4648087212726786,
        "lon": 36.93901674732,
        "alt_km": 35756.949982695005,
        "timestamp": "2025-12-22T14:45:57.667757+00:00",
        "meta_object_name": "BEIDOU-2 G6 (C02)",
        "meta_object_id": "2012-059A",
        "meta_epoch": "2025-12-21T20:26:44.535840",
        "meta_mean_motion": 1.00268615,
        "meta_eccentricity": 0.00082861,
        "meta_inclination": 3.971,
        "meta_ra_of_asc_node": 75.4173,
        "meta_arg_of_pericenter": 292.3121,
        "meta_mean_anomaly": 113.552,
        "meta_ephemeris_type": 0,
        "meta_classification_type": "U",
        "meta_norad_cat_id": 38953,
        "meta_element_set_no": 999,
        "meta_rev_at_epoch": 4813,
        "meta_bstar": 0,
        "meta_mean_motion_dot": -1.54e-06,
        "meta_mean_motion_ddot": 0,
        "tle_line1": "1 38953U 12059A   25355.85190435 -.00000154  00000+0  00000+0 0  9999",
        "tle_line2": "2 38953   3.9710  75.4173 0008286 292.3121 113.5520  1.00268615 48133"
      },
      "geometry": {
        "type": "Point",
        "coordinates": [
          36.93901674732,
          -2.4648087212726786
        ]
      }
    },
    {
      "type": "Feature",
      "properties": {
        "norad_id": 40549,
        "name": "BEIDOU-3S IGSO-1S (C31)",
        "group": "beidou",
        "lat": 45.831002208999536,
        "lon": 56.26330738698472,
        "alt_km": 35759.80755719197,
        "timestamp": "2025-12-22T14:45:57.667768+00:00",
        "meta_object_name": "BEIDOU-3S IGSO-1S (C31)",
        "meta_object_id": "2015-019A",
        "meta_epoch": "2025-12-18T19:55:38.829792",
        "meta_mean_motion": 1.00292047,
        "meta_eccentricity": 0.0036331,
        "meta_inclination": 49.5404,
        "meta_ra_of_asc_node": 297.6395,
        "meta_arg_of_pericenter": 194.0028,
        "meta_mean_anomaly": 349.3621,
        "meta_ephemeris_type": 0,
        "meta_classification_type": "U",
        "meta_norad_cat_id": 40549,
        "meta_element_set_no": 999,
        "meta_rev_at_epoch": 3926,
        "meta_bstar": 0,
        "meta_mean_motion_dot": -1.83e-06,
        "meta_mean_motion_ddot": 0,
        "tle_line1": "1 40549U 15019A   25352.83031053 -.00000183  00000+0  00000+0 0  9999",
        "tle_line2": "2 40549  49.5404 297.6395 0036331 194.0028 349.3621  1.00292047 39264"
      },
      "geometry": {
        "type": "Point",
        "coordinates": [
          56.26330738698472,
          45.831002208999536
        ]
      }
    },
    {
      "type": "Feature",
      "properties": {
        "norad_id": 40748,
        "name": "BEIDOU-3S M2S (C58)",
        "group": "beidou",
        "lat": -27.600099941363425,
        "lon": -73.33513177250929,
        "alt_km": 21512.672364628255,
        "timestamp": "2025-12-22T14:45:57.667780+00:00",
        "meta_object_name": "BEIDOU-3S M2S (C58)",
        "meta_object_id": "2015-037A",
        "meta_epoch": "2025-12-21T01:20:10.923072",
        "meta_mean_motion": 1.86229523,
        "meta_eccentricity": 0.00119434,
        "meta_inclination": 55.0313,
        "meta_ra_of_asc_node": 308.1782,
        "meta_arg_of_pericenter": 270.3499,
        "meta_mean_anomaly": 89.5076,
        "meta_ephemeris_type": 0,
        "meta_classification_type": "U",
        "meta_norad_cat_id": 40748,
        "meta_element_set_no": 999,
        "meta_rev_at_epoch": 7080,
        "meta_bstar": 0,
        "meta_mean_motion_dot": -6.4e-07,
        "meta_mean_motion_ddot": 0,
        "tle_line1": "1 40748U 15037A   25355.05568198 -.00000064  00000+0  00000+0 0  9990",
        "tle_line2": "2 40748  55.0313 308.1782 0011943 270.3499  89.5076  1.86229523 70801"
      },
      "geometry": {
        "type": "Point",
        "coordinates": [
          -73.33513177250929,
          -27.600099941363425
        ]
      }
    },
    {
      "type": "Feature",
      "properties": {
        "norad_id": 40749,
        "name": "BEIDOU-3S M1S (C57)",
        "group": "beidou",
        "lat": 6.386356442559435,
        "lon": 123.60427226247636,
        "alt_km": 21535.2381957616,
        "timestamp": "2025-12-22T14:45:57.667792+00:00",
        "meta_object_name": "BEIDOU-3S M1S (C57)",
        "meta_object_id": "2015-037B",
        "meta_epoch": "2025-12-21T06:50:01.998240",
        "meta_mean_motion": 1.86253999,
        "meta_eccentricity": 0.00036481,
        "meta_inclination": 55.0276,
        "meta_ra_of_asc_node": 308.16,
        "meta_arg_of_pericenter": 1.485,
        "meta_mean_anomaly": 358.5113,
        "meta_ephemeris_type": 0,
        "meta_classification_type": "U",
        "meta_norad_cat_id": 40749,
        "meta_element_set_no": 999,
        "meta_rev_at_epoch": 7081,
        "meta_bstar": 0,
        "meta_mean_motion_dot": -6.3e-07,
        "meta_mean_motion_ddot": 0,
        "tle_line1": "1 40749U 15037B   25355.28474535 -.00000063  00000+0  00000+0 0  9996",
        "tle_line2": "2 40749  55.0276 308.1600 0003648   1.4850 358.5113  1.86253999 70812"
      },
      "geometry": {
        "type": "Point",
        "coordinates": [
          123.60427226247636,
          6.386356442559435
        ]
      }
    }
  ]
}